{
  "norad_id": 47407,
  "name": "STARLINK-2134",
  "history": [
    {
      "epoch": "2026-03-28T21:08:02.080896Z",
      "apogee_km": 548.150691015634,
      "perigee_km": 546.2215730039816,
      "latitude_deg": -4.4249893491513974e-05,
      "longitude_deg": 162.16322168603932,
      "height_km": 548.068723175294,
      "semi_major_axis_km": 6925.3231320098075,
      "eccentricity": 0.00013928,
      "inclination_deg": 53.0543,
      "raan_deg": 305.4666,
      "arg_perigee_deg": 90.311,
      "mean_anomaly_deg": 269.8038,
      "mean_motion_rev_day": 15.06408296
    },
    {
      "epoch": "2026-03-29T00:19:06.680928Z",
      "apogee_km": 548.1756641387701,
      "perigee_km": 546.1867127550486,
      "latitude_deg": 5.020932362561849e-05,
      "longitude_deg": 113.66743816506393,
      "height_km": 548.099767755116,
      "semi_major_axis_km": 6925.3181884469095,
      "eccentricity": 0.0001436,
      "inclination_deg": 53.0546,
      "raan_deg": 304.8707,
      "arg_perigee_deg": 92.3781,
      "mean_anomaly_deg": 267.7373,
      "mean_motion_rev_day": 15.06409909
    },
    {
      "epoch": "2026-03-29T21:01:08.585184Z",
      "apogee_km": 548.1990870902246,
      "perigee_km": 546.2558298231816,
      "latitude_deg": -3.316967343347939e-05,
      "longitude_deg": 158.43660132479457,
      "height_km": 548.1661324257506,
      "semi_major_axis_km": 6925.364458456703,
      "eccentricity": 0.0001403,
      "inclination_deg": 53.0545,
      "raan_deg": 300.998,
      "arg_perigee_deg": 93.6181,
      "mean_anomaly_deg": 266.4968,
      "mean_motion_rev_day": 15.06394812
    },
    {
      "epoch": "2026-03-29T21:01:08.586048Z",
      "apogee_km": 548.1990178365804,
      "perigee_km": 546.2558990768257,
      "latitude_deg": -3.223908455937674e-05,
      "longitude_deg": 158.43659841095203,
      "height_km": 548.1661280538094,
      "semi_major_axis_km": 6925.364458456703,
      "eccentricity": 0.00014029,
      "inclination_deg": 53.0545,
      "raan_deg": 300.998,
      "arg_perigee_deg": 93.6181,
      "mean_anomaly_deg": 266.4968,
      "mean_motion_rev_day": 15.06394812
    },
    {
      "epoch": "2026-03-30T14:32:04.236576Z",
      "apogee_km": 548.080310692314,
      "perigee_km": 546.3323540352267,
      "latitude_deg": 4.0394235604157494e-05,
      "longitude_deg": -108.29015802036521,
      "height_km": 548.1127891298258,
      "semi_major_axis_km": 6925.34333236377,
      "eccentricity": 0.0001262,
      "inclination_deg": 53.055,
      "raan_deg": 297.7224,
      "arg_perigee_deg": 91.8924,
      "mean_anomaly_deg": 268.221,
      "mean_motion_rev_day": 15.06401705
    },
    {
      "epoch": "2026-03-30T22:29:45.789792Z",
      "apogee_km": 548.1156299147542,
      "perigee_km": 546.2888639282,
      "latitude_deg": 5.283229798957906e-07,
      "longitude_deg": 130.47080521155553,
      "height_km": 548.1122087926785,
      "semi_major_axis_km": 6925.339246921477,
      "eccentricity": 0.00013189,
      "inclination_deg": 53.0543,
      "raan_deg": 296.2335,
      "arg_perigee_deg": 92.0399,
      "mean_anomaly_deg": 268.0741,
      "mean_motion_rev_day": 15.06403038
    },
    {
      "epoch": "2026-03-31T20:47:19.976352Z",
      "apogee_km": 548.1506154126528,
      "perigee_km": 546.3610938990105,
      "latitude_deg": -6.178871562804532e-05,
      "longitude_deg": 150.99228191005528,
      "height_km": 548.0860873620068,
      "semi_major_axis_km": 6925.392854655832,
      "eccentricity": 0.0001292,
      "inclination_deg": 53.054,
      "raan_deg": 292.063,
      "arg_perigee_deg": 86.9744,
      "mean_anomaly_deg": 273.1392,
      "mean_motion_rev_day": 15.06385547
    }
  ]
}